CCSDS_OMM_VERS = 2.0
CREATION_DATE  = 
ORIGINATOR     = 

OBJECT_NAME    = SL-4 R/B
OBJECT_ID      = 2014-021B
CENTER_NAME    = EARTH
REF_FRAME      = TEME
TIME_SYSTEM    = UTC
MEAN_ELEMENT_THEORY = SGP/SGP4

EPOCH          = 2026-01-17T13:38:06.209952
MEAN_MOTION    = 15.37563730
ECCENTRICITY   = .00993135
INCLINATION    = 51.6062
RA_OF_ASC_NODE = 226.3562
ARG_OF_PERICENTER = 276.3231
MEAN_ANOMALY   = 82.6449

EPHEMERIS_TYPE = 0
CLASSIFICATION_TYPE = U
NORAD_CAT_ID   = 39679
ELEMENT_SET_NO = 999
REV_AT_EPOCH   = 64840
BSTAR          = .22176011E-3
MEAN_MOTION_DOT = .938E-4
MEAN_MOTION_DDOT = 0

CCSDS_OMM_VERS = 2.0
CREATION_DATE  = 
ORIGINATOR     = 

OBJECT_NAME    = YAOGAN-29
OBJECT_ID      = 2015-069A
CENTER_NAME    = EARTH
REF_FRAME      = TEME
TIME_SYSTEM    = UTC
MEAN_ELEMENT_THEORY = SGP/SGP4

EPOCH          = 2026-01-17T15:35:17.868768
MEAN_MOTION    = 14.82928379
ECCENTRICITY   = .00024375
INCLINATION    = 98.0196
RA_OF_ASC_NODE = 45.9328
ARG_OF_PERICENTER = 120.3168
MEAN_ANOMALY   = 239.8286

EPHEMERIS_TYPE = 0
CLASSIFICATION_TYPE = U
NORAD_CAT_ID   = 41038
ELEMENT_SET_NO = 999
REV_AT_EPOCH   = 54831
BSTAR          = .10108247E-3
MEAN_MOTION_DOT = .766E-5
MEAN_MOTION_DDOT = 0

CCSDS_OMM_VERS = 2.0
CREATION_DATE  = 
ORIGINATOR     = 

OBJECT_NAME    = ASTRO-H (HITOMI)
OBJECT_ID      = 2016-012A
CENTER_NAME    = EARTH
REF_FRAME      = TEME
TIME_SYSTEM    = UTC
MEAN_ELEMENT_THEORY = SGP/SGP4

EPOCH          = 2026-01-17T12:43:28.137792
MEAN_MOTION    = 15.09605349
ECCENTRICITY   = .00097587
INCLINATION    = 31.0007
RA_OF_ASC_NODE = 326.5956
ARG_OF_PERICENTER = 180.0306
MEAN_ANOMALY   = 180.0332

EPHEMERIS_TYPE = 0
CLASSIFICATION_TYPE = U
NORAD_CAT_ID   = 41337
ELEMENT_SET_NO = 999
REV_AT_EPOCH   = 54449
BSTAR          = .13339794E-3
MEAN_MOTION_DOT = .2294E-4
MEAN_MOTION_DDOT = 0

CCSDS_OMM_VERS = 2.0
CREATION_DATE  = 
ORIGINATOR     = 

OBJECT_NAME    = HXMT (HUIYAN)
OBJECT_ID      = 2017-034A
CENTER_NAME    = EARTH
REF_FRAME      = TEME
TIME_SYSTEM    = UTC
MEAN_ELEMENT_THEORY = SGP/SGP4

EPOCH          = 2026-01-17T14:55:00.350112
MEAN_MOTION    = 15.16734809
ECCENTRICITY   = .00334935
INCLINATION    = 43.0153
RA_OF_ASC_NODE = 300.4429
ARG_OF_PERICENTER = 271.7204
MEAN_ANOMALY   = 87.9807

EPHEMERIS_TYPE = 0
CLASSIFICATION_TYPE = U
NORAD_CAT_ID   = 42758
ELEMENT_SET_NO = 999
REV_AT_EPOCH   = 47478
BSTAR          = .29534189E-3
MEAN_MOTION_DOT = .5744E-4
MEAN_MOTION_DDOT = 0

CCSDS_OMM_VERS = 2.0
CREATION_DATE  = 
ORIGINATOR     = 

OBJECT_NAME    = CZ-2C R/B
OBJECT_ID      = 2018-054D
CENTER_NAME    = EARTH
REF_FRAME      = TEME
TIME_SYSTEM    = UTC
MEAN_ELEMENT_THEORY = SGP/SGP4

EPOCH          = 2026-01-17T11:10:09.743520
MEAN_MOTION    = 15.83941041
ECCENTRICITY   = .00110521
INCLINATION    = 35.1335
RA_OF_ASC_NODE = 297.0140
ARG_OF_PERICENTER = 161.5755
MEAN_ANOMALY   = 198.5383

EPHEMERIS_TYPE = 0
CLASSIFICATION_TYPE = U
NORAD_CAT_ID   = 43521
ELEMENT_SET_NO = 999
REV_AT_EPOCH   = 42070
BSTAR          = .80309617E-3
MEAN_MOTION_DOT = .191496E-2
MEAN_MOTION_DDOT = 0

CCSDS_OMM_VERS = 2.0
CREATION_DATE  = 
ORIGINATOR     = 

OBJECT_NAME    = SAOCOM 1A
OBJECT_ID      = 2018-076A
CENTER_NAME    = EARTH
REF_FRAME      = TEME
TIME_SYSTEM    = UTC
MEAN_ELEMENT_THEORY = SGP/SGP4

EPOCH          = 2026-01-17T14:06:01.143072
MEAN_MOTION    = 14.82148618
ECCENTRICITY   = .00014965
INCLINATION    = 97.8850
RA_OF_ASC_NODE = 206.4886
ARG_OF_PERICENTER = 86.2162
MEAN_ANOMALY   = 273.9222

EPHEMERIS_TYPE = 0
CLASSIFICATION_TYPE = U
NORAD_CAT_ID   = 43641
ELEMENT_SET_NO = 999
REV_AT_EPOCH   = 39379
BSTAR          = -.19507004E-4
MEAN_MOTION_DOT = -.207E-5
MEAN_MOTION_DDOT = 0

CCSDS_OMM_VERS = 2.0
CREATION_DATE  = 
ORIGINATOR     = 

OBJECT_NAME    = H-2A R/B
OBJECT_ID      = 2018-084L
CENTER_NAME    = EARTH
REF_FRAME      = TEME
TIME_SYSTEM    = UTC
MEAN_ELEMENT_THEORY = SGP/SGP4

EPOCH          = 2026-01-17T12:54:18.598464
MEAN_MOTION    = 15.38883116
ECCENTRICITY   = .00259156
INCLINATION    = 98.8762
RA_OF_ASC_NODE = 224.0830
ARG_OF_PERICENTER = 199.9082
MEAN_ANOMALY   = 160.1150

EPHEMERIS_TYPE = 0
CLASSIFICATION_TYPE = U
NORAD_CAT_ID   = 43682
ELEMENT_SET_NO = 999
REV_AT_EPOCH   = 39790
BSTAR          = .48702149E-3
MEAN_MOTION_DOT = .18866E-3
MEAN_MOTION_DDOT = 0

CCSDS_OMM_VERS = 2.0
CREATION_DATE  = 
ORIGINATOR     = 

OBJECT_NAME    = SAOCOM 1B
OBJECT_ID      = 2020-059A
CENTER_NAME    = EARTH
REF_FRAME      = TEME
TIME_SYSTEM    = UTC
MEAN_ELEMENT_THEORY = SGP/SGP4

EPOCH          = 2026-01-17T14:50:56.776416
MEAN_MOTION    = 14.82152948
ECCENTRICITY   = .0001385
INCLINATION    = 97.8847
RA_OF_ASC_NODE = 205.6184
ARG_OF_PERICENTER = 89.9193
MEAN_ANOMALY   = 270.2179

EPHEMERIS_TYPE = 0
CLASSIFICATION_TYPE = U
NORAD_CAT_ID   = 46265
ELEMENT_SET_NO = 999
REV_AT_EPOCH   = 29118
BSTAR          = .11215224E-3
MEAN_MOTION_DOT = .841E-5
MEAN_MOTION_DDOT = 0

CCSDS_OMM_VERS = 2.0
CREATION_DATE  = 
ORIGINATOR     = 

OBJECT_NAME    = CSS (TIANHE)
OBJECT_ID      = 2021-035A
CENTER_NAME    = EARTH
REF_FRAME      = TEME
TIME_SYSTEM    = UTC
MEAN_ELEMENT_THEORY = SGP/SGP4

EPOCH          = 2026-01-17T10:32:27.433824
MEAN_MOTION    = 15.60598009
ECCENTRICITY   = .00112
INCLINATION    = 41.4655
RA_OF_ASC_NODE = 159.7316
ARG_OF_PERICENTER = 302.9743
MEAN_ANOMALY   = 57.0018

EPHEMERIS_TYPE = 0
CLASSIFICATION_TYPE = U
NORAD_CAT_ID   = 48274
ELEMENT_SET_NO = 999
REV_AT_EPOCH   = 26960
BSTAR          = .22917576E-3
MEAN_MOTION_DOT = .19264E-3
MEAN_MOTION_DDOT = 0

CCSDS_OMM_VERS = 2.0
CREATION_DATE  = 
ORIGINATOR     = 

OBJECT_NAME    = COSMOS 2550
OBJECT_ID      = 2021-056A
CENTER_NAME    = EARTH
REF_FRAME      = TEME
TIME_SYSTEM    = UTC
MEAN_ELEMENT_THEORY = SGP/SGP4

EPOCH          = 2026-01-17T14:09:54.594144
MEAN_MOTION    = 15.33830888
ECCENTRICITY   = .00083709
INCLINATION    = 67.1431
RA_OF_ASC_NODE = 195.4951
ARG_OF_PERICENTER = 270.7132
MEAN_ANOMALY   = 89.3063

EPHEMERIS_TYPE = 0
CLASSIFICATION_TYPE = U
NORAD_CAT_ID   = 48865
ELEMENT_SET_NO = 999
REV_AT_EPOCH   = 25562
BSTAR          = -.186878E-6
MEAN_MOTION_DOT = -.198E-5
MEAN_MOTION_DDOT = 0

CCSDS_OMM_VERS = 2.0
CREATION_DATE  = 
ORIGINATOR     = 

OBJECT_NAME    = CZ-2C R/B
OBJECT_ID      = 2022-058K
CENTER_NAME    = EARTH
REF_FRAME      = TEME
TIME_SYSTEM    = UTC
MEAN_ELEMENT_THEORY = SGP/SGP4

EPOCH          = 2026-01-17T12:47:11.080032
MEAN_MOTION    = 15.50576618
ECCENTRICITY   = .00428722
INCLINATION    = 50.1876
RA_OF_ASC_NODE = 220.7258
ARG_OF_PERICENTER = 345.5098
MEAN_ANOMALY   = 14.4639

EPHEMERIS_TYPE = 0
CLASSIFICATION_TYPE = U
NORAD_CAT_ID   = 52794
ELEMENT_SET_NO = 999
REV_AT_EPOCH   = 20218
BSTAR          = .411443E-3
MEAN_MOTION_DOT = .24515E-3
MEAN_MOTION_DDOT = 0

