SL-4 R/B                
1 39679U 14021B   26017.56812743  .00009380  00000+0  22176-3 0  9994
2 39679  51.6062 226.3562 0099313 276.3231  82.6449 15.37563730648406
YAOGAN-29               
1 41038U 15069A   26017.64951237  .00000766  00000+0  10108-3 0  9991
2 41038  98.0196  45.9328 0002437 120.3168 239.8286 14.82928379548311
ASTRO-H (HITOMI)        
1 41337U 16012A   26017.53018678  .00002294  00000+0  13340-3 0  9992
2 41337  31.0007 326.5956 0009758 180.0306 180.0332 15.09605349544499
HXMT (HUIYAN)           
1 42758U 17034A   26017.62153183  .00005744  00000+0  29534-3 0  9991
2 42758  43.0153 300.4429 0033493 271.7204  87.9807 15.16734809474784
CZ-2C R/B               
1 43521U 18054D   26017.46539055  .00191496  00000+0  80310-3 0  9990
2 43521  35.1335 297.0140 0011052 161.5755 198.5383 15.83941041420705
SAOCOM 1A               
1 43641U 18076A   26017.58751323 -.00000207  00000+0 -19507-4 0  9996
2 43641  97.8850 206.4886 0001496  86.2162 273.9222 14.82148618393797
H-2A R/B                
1 43682U 18084L   26017.53771526  .00018866  00000+0  48702-3 0  9998
2 43682  98.8762 224.0830 0025915 199.9082 160.1150 15.38883116397900
SAOCOM 1B               
1 46265U 20059A   26017.61871269  .00000841  00000+0  11215-3 0  9990
2 46265  97.8847 205.6184 0001385  89.9193 270.2179 14.82152948291183
CSS (TIANHE)            
1 48274U 21035A   26017.43920641  .00019264  00000+0  22918-3 0  9997
2 48274  41.4655 159.7316 0011200 302.9743  57.0018 15.60598009269603
COSMOS 2550             
1 48865U 21056A   26017.59021521 -.00000198  00000+0 -18688-6 0  9992
2 48865  67.1431 195.4951 0008370 270.7132  89.3063 15.33830888255625
CZ-2C R/B               
1 52794U 22058K   26017.53276713  .00024515  00000+0  41144-3 0  9997
2 52794  50.1876 220.7258 0042872 345.5098  14.4639 15.50576618202183
